[{"OBJECT_NAME":"ONEWEB-0250","OBJECT_ID":"2021-060B","EPOCH":"2026-03-09T21:59:24.758592","MEAN_MOTION":13.25827467,"ECCENTRICITY":0.00025959,"INCLINATION":87.9003,"RA_OF_ASC_NODE":246.6014,"ARG_OF_PERICENTER":83.7551,"MEAN_ANOMALY":276.3881,"EPHEMERIS_TYPE":0,"CLASSIFICATION_TYPE":"U","NORAD_CAT_ID":48968,"ELEMENT_SET_NO":999,"REV_AT_EPOCH":22706,"BSTAR":4.5056546e-5,"MEAN_MOTION_DOT":3.3e-7,"MEAN_MOTION_DDOT":0},{"OBJECT_NAME":"SL-14 DEB","OBJECT_ID":"1991-056CF","EPOCH":"2026-03-09T07:46:25.677120","MEAN_MOTION":13.37824358,"ECCENTRICITY":0.00805725,"INCLINATION":82.6279,"RA_OF_ASC_NODE":196.8553,"ARG_OF_PERICENTER":129.0392,"MEAN_ANOMALY":231.7951,"EPHEMERIS_TYPE":0,"CLASSIFICATION_TYPE":"U","NORAD_CAT_ID":45346,"ELEMENT_SET_NO":999,"REV_AT_EPOCH":29210,"BSTAR":0.0079235214,"MEAN_MOTION_DOT":4.261e-5,"MEAN_MOTION_DDOT":0}]
